[{"OBJECT_NAME":"ZY-1 02E","OBJECT_ID":"2021-131A","EPOCH":"2026-03-09T22:55:04.304352","MEAN_MOTION":14.35395613,"ECCENTRICITY":0.00020992,"INCLINATION":98.4486,"RA_OF_ASC_NODE":148.1308,"ARG_OF_PERICENTER":78.1274,"MEAN_ANOMALY":282.0147,"EPHEMERIS_TYPE":0,"CLASSIFICATION_TYPE":"U","NORAD_CAT_ID":50465,"ELEMENT_SET_NO":999,"REV_AT_EPOCH":22018,"BSTAR":4.2056084e-5,"MEAN_MOTION_DOT":7.8e-7,"MEAN_MOTION_DDOT":0},{"OBJECT_NAME":"1971-067 AKM","OBJECT_ID":"1971-067K","EPOCH":"2026-03-09T21:34:58.826208","MEAN_MOTION":14.42242601,"ECCENTRICITY":0.00556888,"INCLINATION":87.6245,"RA_OF_ASC_NODE":345.681,"ARG_OF_PERICENTER":17.1567,"MEAN_ANOMALY":343.15,"EPHEMERIS_TYPE":0,"CLASSIFICATION_TYPE":"U","NORAD_CAT_ID":5395,"ELEMENT_SET_NO":999,"REV_AT_EPOCH":84327,"BSTAR":0.00042104783,"MEAN_MOTION_DOT":1.432e-5,"MEAN_MOTION_DDOT":0}]
